DRAGON CRS-24           
1 50318U 21127A   22018.47812211  .00006924  00000+0  13123-3 0  9992
2 50318  51.6458 357.9712 0006626  34.7503 108.9827 15.49539245321967
INMARSAT 6-F1           
1 50319U 21128A   22014.70000000 -.00000246  00000+0  00000+0 0  9999
2 50319  24.9770   0.1720 8053364 175.2970 184.0340  1.05736414   268
H-2A R/B                
1 50320U 21128B   22016.03237495  .00025563 -37503-4  30930-4 0  9991
2 50320  29.9207 357.8783 8292115 177.3400 195.1196  1.17618168   283
SHIYAN 12 01 (SY-12 01) 
1 50321U 21129A   22019.09771556 -.00000173  00000+0  00000+0 0  9990
2 50321   0.4895 265.6739 0001466  41.0616 295.3098  1.00135076   360
SHIYAN 12 02 (SY-12 02) 
1 50322U 21129B   22019.06506012 -.00000173  00000+0  00000+0 0  9991
2 50322   0.4896 265.6288 0001357  41.3521 283.2891  1.00134131   366
CZ-7A DEB               
1 50324U 21129D   22017.65945599  .00156513  49479-6  77552-2 0  9991
2 50324  19.4263 255.8942 7257937 198.0684 105.9549  2.34522173   598
JWST                    
1 50463U 21130A   21362.00000000  .00000000  00000+0  00000+0 0  9997
2 50463   4.6198  89.0659 9884983 192.3200  17.4027  0.01958082    27
ZY-1 02E                
1 50465U 21131A   22019.43384413 -.00000012  00000+0  11269-4 0  9998
2 50465  98.5918  96.5531 0001305  90.4253 269.7078 14.35324396  3498
XW-3 (CAS-9)            
1 50466U 21131B   22019.45570185  .00000067  00000+0  36767-4 0  9993
2 50466  98.5963  96.7026 0003913 217.1921 142.8997 14.38436753  3492
CZ-4C R/B               
1 50467U 21131C   22019.17057022  .00000163  00000+0  38842-4 0  9996
2 50467  98.6338  97.5957 0116055 352.9642   6.9925 14.63871905  3527
CZ-4C DEB               
1 50468U 21131D   22017.18640375  .00400437  00000+0  83995-1 0  9999
2 50468  98.6176  94.6610 0160146 253.6441 104.7134 14.49957713  3194
ONEWEB-0389             
1 50469U 21132A   22019.25002315 -.00827346  00000+0 -33491-1 0  9997
2 50469  87.3577 348.1443 0019326 218.8506 352.4852 15.27120911  4766
ONEWEB-0390             
1 50470U 21132B   22019.25002315 -.00817839  00000+0 -35041-1 0  9998
2 50470  87.3526 348.1499 0017278 212.4681 259.9206 15.25263460  4760
ONEWEB-0391             
1 50471U 21132C   22019.25002315 -.00824361  00000+0 -32750-1 0  9991
2 50471  87.3575 348.1391 0020053 218.3439  18.5686 15.27708533  4765
ONEWEB-0392             
1 50472U 21132D   22019.25002315 -.00829989  00000+0 -35215-1 0  9992
2 50472  87.3535 348.1499 0017010 213.2067 283.9395 15.25631693  4766
ONEWEB-0393             
1 50473U 21132E   22018.91667824 -.00905496  00000+0 -36498-1 0  9999
2 50473  87.3584 348.2625 0018687 220.8875 305.5064 15.27515402  4715
ONEWEB-0394             
1 50474U 21132F   22019.25002315 -.00846370  00000+0 -38677-1 0  9992
2 50474  87.3466 348.1592 0021642 213.3915 155.4426 15.23100251  4750
ONEWEB-0395             
1 50475U 21132G   22019.58334491 -.01014497  00000+0 -48003-1 0  9994
2 50475  87.4270 348.0971 0017724 215.1225  99.8633 15.22069847  4806
ONEWEB-0396             
1 50476U 21132H   22018.91667824 -.00898493  00000+0 -40251-1 0  9992
2 50476  87.3517 348.2869 0021633 213.0413 140.3299 15.23929876  4705
ONEWEB-0397             
1 50477U 21132J   22018.91667824 -.00893505  00000+0 -40810-1 0  9993
2 50477  87.3489 348.2858 0021867 217.1600  98.9474 15.23260408  4706
ONEWEB-0398             
1 50478U 21132K   22018.91667824 -.00940628  00000+0 -46231-1 0  9996
2 50478  87.4232 348.3356 0017851 219.7232   7.3102 15.20574542  4699
ONEWEB-0399             
1 50479U 21132L   22019.58334491 -.01021999  00000+0 -52684-1 0  9993
2 50479  87.4269 348.1010 0017549 215.6295  45.0397 15.19173692  4798
ONEWEB-0400             
1 50480U 21132M   22018.91667824 -.00906110  00000+0 -34801-1 0  9997
2 50480  87.3643 348.2610 0021081 211.4148  34.3986 15.29029453  4712
ONEWEB-0401             
1 50481U 21132N   22018.91667824 -.00897314  00000+0 -39102-1 0  9992
2 50481  87.3516 348.2753 0020256 209.5699 185.6202 15.24881635  4716
ONEWEB-0402             
1 50482U 21132P   22019.58334491 -.00928689  00000+0 -40858-1 0  9998
2 50482  87.3518 348.0416 0017453 209.9595 302.6796 15.24727849  4813
ONEWEB-0403             
1 50483U 21132Q   22019.58334491 -.00966238  00000+0 -41284-1 0  9995
2 50483  87.3531 348.0354 0016884 211.0622 323.1392 15.25375131  4816
ONEWEB-0404             
1 50484U 21132R   22018.91667824 -.00954942  00000+0 -47163-1 0  9992
2 50484  87.4213 348.3267 0018540 221.2262  14.4870 15.20433394  4693
ONEWEB-0405             
1 50485U 21132S   22018.91667824 -.00889826  00000+0 -38173-1 0  9992
2 50485  87.3550 348.2776 0017876 211.3025 217.4130 15.25433764  4712
ONEWEB-0406             
1 50486U 21132T   22019.58334491 -.00963701  00000+0 -43008-1 0  9996
2 50486  87.3494 348.0427 0019583 205.7007 257.9793 15.23858280  4812
ONEWEB-0407             
1 50487U 21132U   22019.58334491 -.00930331  00000+0 -39347-1 0  9991
2 50487  87.3523 348.0258 0017759 217.0848 355.5207 15.26033212  4818
ONEWEB-0409             
1 50488U 21132V   22019.58334491 -.01015936  00000+0 -51522-1 0  9997
2 50488  87.4220 348.0968 0018976 219.6397  73.4222 15.19686783  4802
ONEWEB-0412             
1 50489U 21132W   22019.25002315  .00058840  00000+0  17035-2 0  9999
2 50489  87.4010 348.1718 0020689 219.6093 254.6781 15.35143748  4755
ONEWEB-0413             
1 50490U 21132X   22018.91667824 -.00903289  00000+0 -33896-1 0  9995
2 50490  87.3633 348.2526 0020678 209.3751  63.8587 15.29782009  4712
ONEWEB-0414             
1 50491U 21132Y   22018.91667824 -.00892595  00000+0 -36599-1 0  9996
2 50491  87.3594 348.2727 0017128 220.0424 278.0280 15.26950221  4715
ONEWEB-0417             
1 50492U 21132Z   22019.58334491 -.00954340  00000+0 -43357-1 0  9999
2 50492  87.3469 348.0445 0020710 210.7576 215.8156 15.23208513  4816
ONEWEB-0418             
1 50493U 21132AA  22019.58334491 -.00885870  00000+0 -42182-1 0  9996
2 50493  87.3464 348.0584 0021499 214.0168 166.6852 15.21843505  4804
ONEWEB-0419             
1 50494U 21132AB  22019.25002315 -.00798921  00000+0 -31776-1 0  9995
2 50494  87.3581 348.1390 0019865 218.7147   8.1525 15.27598089  4765
ONEWEB-0420             
1 50495U 21132AC  22018.91667824 -.00894091  00000+0 -32186-1 0  9991
2 50495  87.3655 348.2449 0017928 200.0799 150.0362 15.31155550  4739
ONEWEB-0421             
1 50496U 21132AD  22019.58334491 -.00954816  00000+0 -36575-1 0  9995
2 50496  87.3607 348.0123 0018263 199.4424 196.0732 15.29331990  4836
ONEWEB-0424             
1 50497U 21132AE  22018.91667824 -.00893269  00000+0 -35231-1 0  9993
2 50497  87.3733 348.2928 0019711 222.0769 152.1665 15.28162896  4706
ONEWEB-0426             
1 50498U 21132AF  22019.25002315 -.00849657  00000+0 -35688-1 0  9998
2 50498  87.3519 348.1417 0016769 217.5420 298.4945 15.26031331  4762
ONEWEB-0427             
1 50499U 21132AG  22019.58334491 -.00932922  00000+0 -34774-1 0  9991
2 50499  87.3636 348.0102 0017158 196.9072 234.9889 15.30171924  4837
ONEWEB-0429             
1 50500U 21132AH  22018.91667824 -.00876412  00000+0 -32930-1 0  9992
2 50500  87.3605 348.2440 0020619 210.6355  52.4990 15.29661452  4718
ONEWEB-0430             
1 50501U 21132AJ  22019.25002315 -.00847608  00000+0 -40438-1 0  9996
2 50501  87.3450 348.1750 0019997 220.2611  78.1267 15.21692534  4752
ONEWEB-0432             
1 50502U 21132AK  22018.91667824 -.00888381  00000+0 -32254-1 0  9991
2 50502  87.3677 348.2518 0018404 200.5833 135.9864 15.30854744  4732
ONEWEB-0440             
1 50503U 21132AL  22019.58334491 -.00932709  00000+0 -37333-1 0  9994
2 50503  87.3554 348.0145 0021005 210.4184  92.1167 15.27769640  4827
ONEWEB-0450             
1 50504U 21132AM  22018.91667824 -.00882559  00000+0 -38666-1 0  9997
2 50504  87.3541 348.2834 0021200 211.8973 173.5818 15.24633547  4717
2021-134A               
1 50572U 21134A   22019.59718231  .00001719  00000+0  67814-4 0  9997
2 50572  88.9975 185.3406 0011616 187.5036 289.2390 15.24912270  3222
2021-134B               
1 50573U 21134B   22019.59755488  .00001617  00000+0  63731-4 0  9994
2 50573  88.9975 185.3404 0011604 187.4130 289.3276 15.24906694  3195
TJS-9                   
1 50574U 21135A   22019.25535560 -.00000287  00000+0  00000+0 0  9994
2 50574   0.0887 250.6731 0003387  12.2766  84.8176  1.00271872   311
CZ-3B R/B               
1 50575U 21135B   22016.79101263  .00070571  10405-6  27749-3 0  9992
2 50575  27.0443 339.2869 7225402 190.5205 136.3860  2.41243781   434
STARLINK-3321           
1 50803U 22001A   22019.50001157 -.00810053  00000+0 -44742-2 0  9995
2 50803  53.2176 136.8235 0003964 295.9069  22.0388 15.80969582  3281
STARLINK-3323           
1 50804U 22001B   22019.16667824 -.00811562  00000+0 -43658-2 0  9998
2 50804  53.2175 138.4904 0001388 306.8210 272.9722 15.81566387  3218
STARLINK-3333           
1 50805U 22001C   22019.50001157 -.00823028  00000+0 -45534-2 0  9993
2 50805  53.2177 136.8214 0001070  65.7277 253.1688 15.80997543  3289
STARLINK-3335           
1 50806U 22001D   22019.25002315 -.00732900  00000+0 -39323-2 0  9990
2 50806  53.2166 138.0704 0005663 282.3879  53.1560 15.81376349  3242
STARLINK-3353           
1 50807U 22001E   22019.50001157 -.00822985  00000+0 -45416-2 0  9995
2 50807  53.2176 136.8166 0001057  74.9934 246.2210 15.81052132  3284
STARLINK-3355           
1 50808U 22001F   22019.50001157 -.00816752  00000+0 -45089-2 0  9997
2 50808  53.2176 136.8184 0001286   5.7330 314.5606 15.81026334  3262
STARLINK-3232           
1 50809U 22001G   22019.50001157 -.00823232  00000+0 -45501-2 0  9998
2 50809  53.2176 136.8195 0001060  69.8705 249.9626 15.81019029  3291
STARLINK-3348           
1 50810U 22001H   22019.58334491 -.00824102  00000+0 -45816-2 0  9994
2 50810  53.2175 136.4009 0001136  59.2959  16.0229 15.80895087  3286
STARLINK-3347           
1 50811U 22001J   22019.58334491 -.00824007  00000+0 -45763-2 0  9990
2 50811  53.2175 136.3990 0001166  56.7996  19.4499 15.80916976  3312
